EUTELSAT 7A             
1 28187U 04008A   25212.45903490  .00000106  00000+0  00000+0 0  9999
2 28187   5.0114  75.8580 0000937  50.2497 209.2362  1.00272627 78138
EUTELSAT 174A           
1 28924U 05052A   25212.86808954  .00000014  00000+0  00000+0 0  9990
2 28924   3.4031  80.5412 0006258  47.5874 308.1161  1.00269917 71771
EUTELSAT HOTBIRD 13B    
1 29270U 06032A   25212.48324666  .00000161  00000+0  00000+0 0  9998
2 29270   0.8293  85.8696 0004040  43.1436  27.3666  1.00273376 44091
EUTELSAT HOTBIRD 13C    
1 33459U 08065A   25212.90247462 -.00000095  00000+0  00000+0 0  9992
2 33459   2.1229  83.0480 0003441  55.7198 123.3659  1.00272356 61037
EUTELSAT 36B            
1 36101U 09065A   25212.91504135  .00000120  00000+0  00000+0 0  9992
2 36101   0.0549 337.0643 0005753 152.5863 200.0242  1.00268209 57591
EUTELSAT KA-SAT 9A      
1 37258U 10069A   25212.33575851  .00000067  00000+0  00000+0 0  9991
2 37258   0.0567 308.8360 0003957 186.6990 303.5042  1.00273660 40798
EUTELSAT 7 WEST A       
1 37816U 11051A   25212.90351462 -.00000053  00000+0  00000+0 0  9992
2 37816   0.0612  13.8698 0004963 129.8540 123.9774  1.00272626 50758
EUTELSAT 16A            
1 37836U 11057A   25212.42892124  .00000110  00000+0  00000+0 0  9995
2 37836   0.0637   8.4474 0005500 121.9593 349.2684  1.00271785 50576
